{
  "norad_id": 53843,
  "name": "STARLINK-4769",
  "history": [
    {
      "epoch": "2026-03-28T20:30:59.818464Z",
      "apogee_km": 540.523742993827,
      "perigee_km": 538.9603023347036,
      "latitude_deg": -4.191076397554109e-05,
      "longitude_deg": 74.1513018380526,
      "height_km": 540.6137534705454,
      "semi_major_axis_km": 6917.879022664265,
      "eccentricity": 0.000113,
      "inclination_deg": 53.2149,
      "raan_deg": 208.1699,
      "arg_perigee_deg": 88.2383,
      "mean_anomaly_deg": 271.8738,
      "mean_motion_rev_day": 15.08840447
    }
  ]
}